CZ-4B R/B               
1 28059U 03049C   17318.21577360  .00000029  00000-0  18899-4 0  9991
2 28059  98.5404 206.9778 0050687 148.4770 323.0889 14.52506280745453
CZ-2C R/B               
1 28222U 04012C   17318.48046509  .00000652  00000-0  43690-4 0  9998
2 28222  97.5452 272.3156 0049056  32.0614  82.9017 15.09474524743288
SL-16 R/B               
1 28353U 04021B   17317.88902149 -.00000349  00000-0 -15772-3 0  9991
2 28353  70.9974 124.5147 0006593 312.6606  47.3960 14.14199460693321
CZ-2C R/B               
1 28480U 04046B   17317.88491736  .00000001  00000-0  15567-4 0  9990
2 28480  98.1944  44.4268 0142818 142.4619 331.8846 14.25656242675545
ARIANE 5 R/B            
1 28499U 04049H   17318.42780265  .00000064  00000-0  15201-4 0  9996
2 28499  98.0718  42.2566 0093747  90.5189 323.1523 14.79860590696216
CZ-2D R/B               
1 28738U 05024B   17317.64293867  .00000637  00000-0  41518-4 0  9992
2 28738  97.4812 351.4714 0011464 203.3872 156.6838 15.11348087678362
SUZAKU (ASTRO-EII)      
1 28773U 05025A   17318.51201131  .00001285  00000-0  60489-4 0  9990
2 28773  31.3838  41.3536 0004609  55.8103 304.2980 15.16191986680184
ALOS (DAICHI)           
1 28931U 06002A   17318.46218379  .00000201  00000-0  48304-4 0  9997
2 28931  97.8327 338.2210 0001281 118.1143 242.0192 14.62421239629428
H-2A R/B                
1 28932U 06002B   17317.89497689  .00000549  00000-0  57098-4 0  9992
2 28932  98.2123 246.8464 0089553 180.0881 220.6552 14.91546794640014
AKARI (ASTRO-F)         
1 28939U 06005A   17317.83299645  .00002618  00000-0  80122-4 0  9991
2 28939  98.2356 175.1473 0105064  27.7800 332.8994 15.29681391635988
RESURS-DK 1             
1 29228U 06021A   17318.53013421  .00000172  00000-0  20407-4 0  9998
2 29228  69.9361  75.5511 0002026 144.9908 215.1386 15.02244074630675
GENESIS 1               
1 29252U 06029A   17318.00578069  .00000356  00000-0  28133-4 0  9997
2 29252  64.5028 156.1203 0031628 312.9916  46.8555 15.17047978624550
CZ-4B R/B               
1 29507U 06046C   17318.48542907  .00000151  00000-0  16690-4 0  9991
2 29507  97.7802 326.1725 0053739  96.9283 263.8058 15.00151971603571
CZ-2C R/B               
1 31114U 07010B   17318.36298937 -.00000002  00000-0  17975-4 0  9991
2 31114  98.3829 212.9349 0060450 138.7486 221.8281 14.19256737548829
COSMO-SKYMED 1          
1 31598U 07023A   17318.51954621 -.00000269  00000-0 -27235-4 0  9993
2 31598  97.8882 140.0771 0001505  92.7411 267.3990 14.82151726564711
GENESIS 2               
1 31789U 07028A   17318.18880834  .00000562  00000-0  39151-4 0  9991
2 31789  64.5036 194.0047 0013530 220.0539 139.9587 15.16312627571641
COSMOS 2428             
1 31792U 07029A   17318.49695014  .00000350  00000-0  21595-3 0  9991
2 31792  70.9347  96.6399 0006235  40.6384 319.5201 14.12378581535292
SL-16 R/B               
1 31793U 07029B   17318.51455753  .00000269  00000-0  16530-3 0  9991
2 31793  70.9766  73.3945 0002562 269.9248 162.6923 14.14391776535977
CZ-4B DEB               
1 33411U 08053D   17315.40721526  .11288782  24851-5  12794-2 0  9999
2 33411  97.3632  13.7523 0007936 279.3174  80.7226 16.36985159499531
KORONAS-FOTON           
1 33504U 09003A   17317.90943374  .00000815  00000-0  41808-4 0  9994
2 33504  82.4425  84.1887 0018243 315.9609  44.0169 15.14999804484144
TIANGONG 1              
1 37820U 11053A   17318.48472863  .00045651  90113-5  14371-3 0  9991
2 37820  42.7565 352.7660 0017886  72.6325  66.5651 15.91198925351801
H-2A R/B                
1 38341U 12025E   17318.30079888  .00000216  00000-0  32968-4 0  9993
2 38341  98.4263  43.6426 0056491  36.6119 323.8933 14.83666088297132
CUSAT 2 & FALCON 9 R/B  
1 39271U 13055G   17318.45890435  .00006177  00000-0  15520-3 0  9991
2 39271  80.9688 197.9303 0625422 117.0279 249.6157 14.39271904214228
ALOS-2                  
1 39766U 14029A   17318.46280998 -.00000092  00000-0 -53994-5 0  9991
2 39766  97.9223  53.6359 0001558  88.3261 271.8128 14.79469847187827
SL-27 R/B               
1 40354U 14084B   17317.92788657  .00001153  00000-0  30814-4 0  9994
2 40354  74.7389 184.0455 0038541 132.3069 228.1420 15.38624341162485
ASTRO-H (HITOMI)        
1 41337U 16012A   17317.88144724  .00000356  00000-0  22138-4 0  9999
2 41337  31.0057 250.1773 0012352  79.1723 281.0301 14.98393657 95399
TIANGONG-2              
1 41765U 16057A   17318.50023344  .00004773  00000-0  63184-4 0  9990
2 41765  42.7841 181.7590 0003279 226.6036 203.7682 15.59483213 66447
SHENZHOU-11 MODULE      
1 41868U 16061G   17317.85594478  .00009466  00000-0  85013-4 0  9996
2 41868  42.7945 173.5044 0002439  62.5320 357.7151 15.68456843 56426
